0 XW-2E
1 40909U 15049L   23037.57545321  .00019918  00000-0  69260-3 0  9992
2 40909  97.4613  50.1299 0008624 217.2927 262.0603 15.29724092409115
0 CSS (TIANHE-1)
1 48274U 21035A   23037.57287128  .00013765  00000-0  16207-3 0  9992
2 48274  41.4741 232.3134 0002905 171.9800 286.2813 15.61133623101405
0 XW-2B
1 40911U 15049N   23037.57156447  .00011745  00000-0  49515-3 0  9993
2 40911  97.4931  45.3728 0009594 253.6441 222.0662 15.23434881408440
0 XW-2C
1 40906U 15049H   23037.56933965  .00010126  00000-0  44033-3 0  9996
2 40906  97.4968  44.6136 0010549 259.3929 217.7493 15.22413934408498
0 ISS (ZARYA)
1 25544U 98067A   23037.56104797  .00011849  00000-0  21785-3 0  9993
2 25544  51.6425 255.5420 0008258 320.3825 112.4143 15.49636939381535
0 LILACSAT 2
1 40908U 15049K   23037.53201127  .00005595  00000-0  28090-3 0  9992
2 40908  97.5226  41.1453 0012658 287.7593 189.3404 15.17639847407961
0 XW-2F
1 40910U 15049M   23037.52724234  .00019679  00000-0  69625-3 0  9990
2 40910  97.4698  49.2808 0009465 219.8129 292.2101 15.29152179408861
0 XW-2D
1 40907U 15049J   23037.52705139  .00011884  00000-0  49863-3 0  9991
2 40907  97.4944  44.8183 0009710 252.8240 225.8563 15.23593151408555
0 ZHUHAI-1 01
1 42761U 17034D   23037.52136699  .00007305  00000-0  40084-3 0  9995
2 42761  43.0152 119.1636 0011887 332.4390 152.2833 15.14521561311812
0 XW-2A
1 40903U 15049E   23037.51355438  .00084781  00000-0  64258-3 0  9990
2 40903  97.1429 103.1596 0005057 326.4810 149.1172 15.72100523415759
0 ZHUHAI-1 02
1 42759U 17034B   23037.49903851  .00008228  00000-0  45155-3 0  9999
2 42759  43.0168 120.6866 0011546 329.9919 149.2973 15.14387700311803
0 OBJECT C
1 54684U 22167C   23037.47216093  .00009847  00000-0  60865-3 0  9998
2 54684  97.5398 176.4724 0014990  65.2728  23.1795 15.09963767  8923
0 JAS 2
1 24278U 96046B   23037.46185063  .00000030  00000-0  65182-4 0  9995
2 24278  98.5174  33.9020 0350913  36.1953 326.2393 13.53130165307505
0 AO-92
1 43137U 18004AC  23037.44555618  .00026572  00000-0  75374-3 0  9995
2 43137  97.3444 116.0775 0006056 248.2499 111.8101 15.36186390282167
0 DIWATA 2B
1 43678U 18084H   23037.44439548  .00001550  00000-0  15570-3 0  9997
2 43678  97.9981 179.0077 0008713 229.6541 130.3888 14.92753157232756
0 XW-3 (CAS 9)
1 50466U 21131B   23037.43065226  .00000817  00000-0  28100-3 0  9992
2 50466  98.5615 119.3688 0005134 161.3184 198.8192 14.38660343 58559
0 TEVEL 4
1 51063U 22002CH  23037.41221848  .00013970  00000-0  67115-3 0  9999
2 51063  97.4549 105.7243 0008120 337.2088 151.4595 15.18919425 58861
0 TEVEL 7
1 51062U 22002CG  23037.40958417  .00014046  00000-0  67424-3 0  9994
2 51062  97.4546 105.7305 0008231 336.9742 151.6907 15.18945582 58864
0 TEVEL 8
1 50989U 22002F   23037.40798983  .00013960  00000-0  67023-3 0  9990
2 50989  97.4555 105.7506 0008290 337.1244 153.6624 15.18940454 58860
0 TEVEL 1
1 51013U 22002AF  23037.40131140  .00014016  00000-0  67238-3 0  9996
2 51013  97.4525 105.6592 0008119 337.8694 154.6951 15.18968532 58867
0 TEVEL 5
1 50998U 22002Q   23037.40093979  .00014527  00000-0  68388-3 0  9998
2 50998  97.4524 105.9517 0009529 331.7755 160.8633 15.19604450 58889
0 TEVEL 6
1 50999U 22002R   23037.39962103  .00014489  00000-0  68200-3 0  9991
2 50999  97.4522 105.9463 0009467 331.6436 160.2917 15.19610083 58882
0 TEVEL 2
1 51069U 22002CP  23037.39610635  .00014052  00000-0  67352-3 0  9993
2 51069  97.4537 105.6725 0008384 338.0527 151.2372 15.18997503 58861
0 TEVEL 3
1 50988U 22002E   23037.39414265  .00014046  00000-0  67319-3 0  9999
2 50988  97.4532 105.6913 0008443 337.8767 150.9393 15.18999062 58864
0 ES'HAIL 2
1 43700U 18090A   23037.30739531  .00000148  00000-0  00000+0 0  9990
2 43700   0.0195  98.8456 0002618 254.9987 278.7936  1.00275558 15610
0 AO-91
1 43017U 17073E   23037.26734332  .00005325  00000-0  38622-3 0  9997
2 43017  97.6500 286.8327 0241994 140.5114 221.4018 14.83707950281750
0 SAUDISAT 1C
1 27607U 02058C   23037.22222904  .00001500  00000-0  22336-3 0  9990
2 27607  64.5555 306.2872 0078629 250.1294 109.1323 14.76700396 83099
0 JY1SAT
1 43803U 18099AX  23037.16160896  .00004629  00000-0  38805-3 0  9995
2 43803  97.5904 103.1568 0013784 201.2363 158.8289 14.98797620228059
0 UVSQ-SAT
1 47438U 21006AB  23037.14626617  .00011181  00000-0  52819-3 0  9993
2 47438  97.4061  96.4353 0010969 175.4028 184.7309 15.19532595112716
0 NAYIF 1
1 42017U 17008BX  23037.13109300  .00047694  00000-0  93496-3 0  9996
2 42017  97.2373 106.0256 0003891 121.3343 238.8288 15.47215291333022
0 XW-4 (CAS-10)
1 54816U 21035C   23036.96993071  .00146174  00000-0  95165-3 0  9995
2 54816  41.4756 233.1208 0013966 271.7091  88.2152 15.74542652  7705
0 AO-95
1 43770U 18099N   23036.92592176  .00005378  00000-0  45951-3 0  9993
2 43770  97.5922 102.0339 0012920 204.7798 155.2805 14.98001552227941
0 OSCAR 7
1 07530U 74089B   23036.91429804 -.00000039  00000-0  47659-4 0  9992
2 07530 101.9353  22.7671 0012085 315.8480  99.3615 12.53660846206720
0 FUNCUBE 1
1 39444U 13066AE  23036.88269267  .00005200  00000-0  60096-3 0  9993
2 39444  97.6556   5.8632 0054435 347.6660  12.3219 14.84922349496149
0 EYESAT A
1 22825U 93061C   23036.83053224  .00000130  00000-0  67768-4 0  9991
2 22825  98.8608  77.4828 0009516  91.7954 268.4317 14.30239786531511
0 BREEZE-KM R/B
1 44909U 19096E   23036.79943491  .00000038  00000-0  98942-4 0  9998
2 44909  82.5179  75.2513 0218317 133.9774 227.9562 12.79718078145350
0 NEXUS
1 43937U 19003F   23036.70225210  .00027581  00000-0  70880-3 0  9991
2 43937  97.1059  66.7137 0018004  41.8914 318.3706 15.39085273225739
0 LAPAN A2
1 40931U 15052B   23036.09207692  .00000890  00000-0  34294-4 0  9992
2 40931   6.0004 309.3506 0013603 226.7559 133.1453 14.77009119397798
0 MT-CUBE-2
1 53106U 22080B   23034.19933790 -.00000003  00000-0  00000-0 0  9994
2 53106  70.1777   6.2677 0008922 216.5435 143.4616  6.42557193 13147
